FALCON 9 DEB            
1 54019U 22125BH  22301.05955788  .00500918  12604-3  77813-3 0  9994
2 54019  53.2198 339.2954 0008760 356.2700   3.8266 16.03505234  3847
CENTISPACE-1 S5         
1 54020U 22126A   22301.23162611  .00000442  00000+0  13494-3 0  9997
2 54020  54.9965 104.7775 0013637 343.4475  16.6071 14.57927218  3024
CENTISPACE-1 S6         
1 54021U 22126B   22301.22818934  .00000406  00000+0  12662-3 0  9999
2 54021  54.9969 104.7598 0015514 343.3193  16.7285 14.58171584  3019
CZ-11H R/B              
1 54022U 22126C   22300.90115041  .00019474  00000+0  33496-3 0  9996
2 54022  56.1446 102.0038 0339103 353.3455   6.3126 15.06699511  3062
OTB-3-GAZELLE           
1 54023U 22127A   22301.21876708 -.00000043  00000+0  00000+0 0  9991
2 54023  98.3164 300.0549 0012217 234.5232 125.4824 14.41646981  2958
ELECTRON KICK STAGE R/B 
1 54024U 22127B   22301.26411034  .00002933  00000+0  40115-3 0  9998
2 54024  98.2945 301.0564 0140728 317.0728  41.9562 14.72737223  3012
ELECTRON R/B            
1 54025U 22127C   22301.26077958  .00146948  65718-5  13603-2 0  9991
2 54025  98.3334 302.7248 0338175 148.2929 213.9458 15.19633486  3119
GALAXY 33               
1 54026U 22128A   22301.31575295  .00000088  00000+0  00000+0 0  9991
2 54026   0.0204 279.4122 0002261 298.3264 159.6135  1.00272027   435
GALAXY 34               
1 54027U 22128B   22301.20693615  .00000135  00000+0  00000+0 0  9990
2 54027   0.0613  74.3148 0008110 198.1050  50.5604  1.00378005   454
FALCON 9 R/B            
1 54028U 22128C   22300.26843511  .00004555  00000+0  11798-2 0  9997
2 54028  26.8694 181.0787 5936092 198.8722 123.4448  4.12049297   755
ASO-S                   
1 54029U 22129A   22301.27560112  .00000154  00000+0  50337-4 0  9999
2 54029  98.2682 306.4591 0014182 204.3155 155.7375 14.50861630  2796
CZ-2D R/B               
1 54030U 22129B   22301.29233352  .00000269  00000+0  73035-4 0  9993
2 54030  98.1947 306.3590 0019400  59.4188 300.8920 14.54809290  2801
COSMOS 2559 [GLONASS-K] 
1 54031U 22130A   22300.65319083 -.00000052  00000+0  00000+0 0  9999
2 54031  64.7713   1.0646 0005493 245.3433 177.5713  2.13019626   376
FREGAT R/B              
1 54032U 22130B   22295.10579347 -.00000060  00000+0  00000+0 0  9993
2 54032  64.7805   1.2292 0026427 174.2783 242.8276  2.11046330   231
ANGOSAT 2               
1 54033U 22131A   22300.85257744  .00000107  00000+0  00000+0 0  9999
2 54033   0.0501 278.1507 0001224  75.3814  17.2500  0.99792087   163
BLOCK DM-SL R/B         
1 54034U 22131B   22294.89994812 -.00000134  00000+0  00000+0 0  9991
2 54034   0.1517 285.1102 0081626 172.5310 263.3147  0.97749073    94
HJ-2E                   
1 54035U 22132A   22301.24380858  .00007298  00000+0  30497-3 0  9994
2 54035  97.3938 306.5822 0012494 212.1530 211.2116 15.23844157  2329
2022-132B               
1 54036U 22132B   22301.23348578  .00100216  00000+0  29476-2 0  9995
2 54036  97.3540 306.7046 0032350 266.0856 224.8925 15.34176772  2333
2022-132C               
1 54037U 22132C   22301.14129736  .00011933  00000+0  11554-2 0  9994
2 54037  97.6514 305.9460 0189344 122.0894 239.8774 14.80295435  2244
2022-132D               
1 54038U 22132D   22301.13643672  .00026508  00000+0  12887-2 0  9998
2 54038  97.5891 306.5970 0100430 180.6571 179.4348 15.13971815  2297
CZ-2C R/B               
1 54039U 22132E   22301.20563236  .00003307  00000+0  17206-3 0  9997
2 54039  97.2516 305.8984 0048320 157.7613 333.1923 15.15694954  2305
2022-132F               
1 54040U 22132F   22301.13495594  .00024452  00000+0  13539-2 0  9990
2 54040  97.1614 305.6896 0122869 171.2216 189.0949 15.07490617  2280
2022-132G               
1 54041U 22132G   22301.12121431  .00012402  00000+0  10703-2 0  9998
2 54041  97.1912 305.3321 0151287 118.5917 243.0550 14.88879910  2251
YAOGAN-36 02A           
1 54042U 22133A   22301.22775372 -.00027494  00000+0 -11044-2 0  9998
2 54042  35.0005 202.1388 0005859  17.0353  93.5623 15.24166110  2052
YAOGAN-36 02B           
1 54043U 22133B   22301.22723713  .00008855  00000+0  35530-3 0  9996
2 54043  34.9999 202.1317 0009789  47.3349  63.7229 15.24202001  2053
CZ-2D R/B               
1 54044U 22133C   22301.33198436  .00022883  00000+0  88291-3 0  9996
2 54044  34.9994 201.3809 0007872  32.3910 327.7279 15.25369546  2074
YAOGAN-36 02C           
1 54045U 22133D   22301.22408566  .00012609  00000+0  50428-3 0  9999
2 54045  34.9987 202.1027 0012533  43.2208  68.3585 15.24222583  2053
CZ-2D DEB               
1 54046U 22133E   22300.81120905  .00019841  00000+0  77524-3 0  9993
2 54046  35.0007 204.7066 0007323  17.4783 342.6030 15.24977250  1995
2022-134A               
1 54048U 22134A   22300.05421303  .00000029  00000+0  00000+0 0  9997
2 54048  23.4914 298.8176 7874179 183.3957 156.2566  1.25250289   157
2022-134B               
1 54049U 22134B   22300.48592569 -.00000230  00000+0 -14941-2 0  9996
2 54049  26.7647 298.5972 8048302 183.8729 158.9234  1.34294234   162
COSMOS 2560             
1 54050U 22135A   22301.31694147  .00197666  00000+0  98086-3 0  9998
2 54050  96.3464  28.3294 0011268 204.5921 226.2184 15.81367110  1961
STARLINK-5195           
1 54051U 22136A   22301.33335648 -.01205922  00000+0 -62507-2 0  9996
2 54051  53.2174 109.8230 0005544  36.3143 303.3307 15.82832403  1725
STARLINK-5189           
1 54052U 22136B   22301.33335648 -.00828591  21038-3 -28748-2 0  9996
2 54052  53.2175 109.7797 0022581  79.1370 289.4918 15.88275229  1726
STARLINK-5176           
1 54053U 22136C   22301.33335648 -.01207565  00000+0 -62609-2 0  9996
2 54053  53.2174 109.8222 0004551  31.7961 308.2731 15.82846981  1723
STARLINK-5163           
1 54054U 22136D   22300.91667824 -.01142867  00000+0 -56704-2 0  9996
2 54054  53.2174 111.9150 0009371  48.9969  75.5703 15.83956999  1300
STARLINK-5158           
1 54055U 22136E   22301.33335648 -.01206194  00000+0 -62414-2 0  9999
2 54055  53.2174 109.8207 0004948  30.3919 310.4257 15.82879218  1723
STARLINK-5226           
1 54056U 22136F   22301.33335648 -.01205892  00000+0 -62289-2 0  9994
2 54056  53.2174 109.8183 0005406  34.7979 306.8270 15.82907599  1729
STARLINK-5216           
1 54057U 22136G   22301.33335648 -.01206083  00000+0 -62235-2 0  9999
2 54057  53.2174 109.8183 0005494  36.2890 305.6601 15.82927985  1722
STARLINK-5167           
1 54058U 22136H   22300.91667824 -.01140521  00000+0 -56410-2 0  9999
2 54058  53.2173 111.9121 0009352  48.9394  77.0927 15.84016661  1301
STARLINK-5173           
1 54059U 22136J   22301.00002315 -.01227759  00000+0 -60802-2 0  9998
2 54059  53.2169 111.4939 0005794  72.9243 168.2577 15.83826976  1676
STARLINK-5169           
1 54060U 22136K   22301.33335648 -.01150879  39634-3 -32503-2 0  9998
2 54060  53.2171 109.4799 0021341  68.7435  76.1808 15.92381721  1728
STARLINK-5209           
1 54061U 22136L   22301.33335648  .00190684  23703-4  73962-3 0  9990
2 54061  53.2166 109.8000 0020052  69.9079 281.7017 15.86529999  1727
STARLINK-5170           
1 54062U 22136M   22301.33335648 -.01208355  00000+0 -62260-2 0  9997
2 54062  53.2174 109.8149 0003530  33.1018 310.3540 15.82995306  1724
STARLINK-5225           
1 54063U 22136N   22300.91667824 -.01142499  00000+0 -56377-2 0  9993
2 54063  53.2174 111.9109 0009415  49.4357  77.6352 15.84067923  1304
STARLINK-5172           
1 54064U 22136P   22301.33335648 -.01201162  00000+0 -59862-2 0  9992
2 54064  53.2174 109.7815 0005507  38.7999 320.5422 15.83644679  1727
STARLINK-5187           
1 54065U 22136Q   22300.91667824 -.01192755  00000+0 -57869-2 0  9992
2 54065  53.2174 111.9097 0008621  46.8466  80.9115 15.84121831  1305
STARLINK-5151           
1 54066U 22136R   22300.91667824 -.01192828  00000+0 -57920-2 0  9992
2 54066  53.2174 111.9099 0008601  46.6052  80.8050 15.84105456  1307
STARLINK-5174           
1 54067U 22136S   22301.00002315 -.01226630  00000+0 -60278-2 0  9991
2 54067  53.2172 111.4887 0007376  45.6820 198.3491 15.83954184  1679
STARLINK-5222           
1 54068U 22136T   22301.00002315 -.01224406  00000+0 -60285-2 0  9999
2 54068  53.2173 111.4885 0005875  67.1260 176.5394 15.83939022  1672
STARLINK-5223           
1 54069U 22136U   22301.33335648 -.01200103  00000+0 -61306-2 0  9997
2 54069  53.2174 109.8089 0004992  30.9866 315.8418 15.83134974  1724
STARLINK-5181           
1 54070U 22136V   22300.91667824 -.01173133  00000+0 -56713-2 0  9994
2 54070  53.2174 111.9072 0008621  47.2990  81.5262 15.84155962  1303
STARLINK-5168           
1 54071U 22136W   22301.33335648 -.01204149  00000+0 -61553-2 0  9998
2 54071  53.2174 109.8098 0005359  35.5366 310.8956 15.83123602  1729
STARLINK-5144           
1 54072U 22136X   22300.91667824 -.01173276  00000+0 -56681-2 0  9998
2 54072  53.2174 111.9066 0008498  46.7548  82.4060 15.84173215  1300
STARLINK-5146           
1 54073U 22136Y   22301.33335648 -.01199597  00000+0 -61122-2 0  9992
2 54073  53.2174 109.8068 0005151  32.9737 314.9442 15.83185338  1720
STARLINK-5192           
1 54074U 22136Z   22301.33335648 -.01199735  00000+0 -61254-2 0  9993
2 54074  53.2174 109.8078 0004555  27.1613 320.0177 15.83152690  1726
STARLINK-5212           
1 54075U 22136AA  22301.33335648 -.01199257  00000+0 -61074-2 0  9993
2 54075  53.2174 109.8062 0004669  28.0064 320.2610 15.83203124  1729
STARLINK-5201           
1 54076U 22136AB  22301.33335648 -.01199597  00000+0 -61190-2 0  9990
2 54076  53.2174 109.8071 0004797  28.8589 318.7042 15.83167971  1722
STARLINK-5171           
1 54077U 22136AC  22301.00002315 -.01230054  00000+0 -59985-2 0  9990
2 54077  53.2172 111.4811 0006399  65.6382 182.2221 15.84139804  1674
STARLINK-5138           
1 54078U 22136AD  22301.00002315 -.01229133  00000+0 -59996-2 0  9999
2 54078  53.2172 111.4817 0006253  54.9469 192.5811 15.84121373  1678
